[{"OBJECT_NAME":"JILIN-1 06","OBJECT_ID":"2017-074C","EPOCH":"2026-03-09T22:46:57.173376","MEAN_MOTION":15.32444387,"ECCENTRICITY":0.00061285,"INCLINATION":97.4715,"RA_OF_ASC_NODE":171.0354,"ARG_OF_PERICENTER":223.0031,"MEAN_ANOMALY":137.0732,"EPHEMERIS_TYPE":0,"CLASSIFICATION_TYPE":"U","NORAD_CAT_ID":43024,"ELEMENT_SET_NO":999,"REV_AT_EPOCH":45863,"BSTAR":0.00028431628,"MEAN_MOTION_DOT":8.833e-5,"MEAN_MOTION_DDOT":0},{"OBJECT_NAME":"STARLINK-35103","OBJECT_ID":"2025-210M","EPOCH":"2026-03-09T21:22:17.484096","MEAN_MOTION":15.30191679,"ECCENTRICITY":0.00012047,"INCLINATION":53.158,"RA_OF_ASC_NODE":306.02,"ARG_OF_PERICENTER":88.3007,"MEAN_ANOMALY":271.8132,"EPHEMERIS_TYPE":0,"CLASSIFICATION_TYPE":"U","NORAD_CAT_ID":65633,"ELEMENT_SET_NO":999,"REV_AT_EPOCH":2776,"BSTAR":0.00058452266,"MEAN_MOTION_DOT":0.00016988,"MEAN_MOTION_DDOT":0}]
